NORAD_CAT_ID,OBJECT_NAME,OBJECT_TYPE,EPOCH,MEAN_MOTION,ECCENTRICITY,INCLINATION,RA_OF_ASC_NODE,ARG_OF_PERICENTER,MEAN_ANOMALY,BSTAR,MEAN_MOTION_DOT,MEAN_MOTION_DDOT,TLE_LINE0,TLE_LINE1,TLE_LINE2,SEMIMAJOR_AXIS,PERIOD,APOGEE,PERIGEE,DECAYED
53164.0,STARLINK-4116,PAYLOAD,2023-03-03 09:36:27,15.08877268,0.000149,53.216,72.4943,116.242,243.8725,0.0011612,0.0001826,0.0,0 STARLINK-4116,1 53164U 22083AJ  23062.40031571  .00018260  00000-0  11612-2 0  9998,2 53164  53.2160  72.4943 0001490 116.2420 243.8725 15.08877268 34951,6917.766,95.435,540.662,538.601,0.0
53164.0,STARLINK-4116,PAYLOAD,2023-03-03 17:33:23,15.08865325,0.000203,53.2162,71.0065,94.982,265.1404,0.00086354,0.00013491,0.0,0 STARLINK-4116,1 53164U 22083AJ  23062.73151745  .00013491  00000-0  86354-3 0  9997,2 53164  53.2162  71.0065 0002030  94.9820 265.1404 15.08865325 35638,6917.803,95.436,541.072,538.264,0.0
53164.0,STARLINK-4116,PAYLOAD,2023-03-04 01:30:18,15.08847695,0.0001147,53.2159,69.5211,109.8971,250.2144,-6.6481e-05,-1.346e-05,0.0,0 STARLINK-4116,1 53164U 22083AJ  23063.06271352 -.00001346  00000-0 -66481-4 0  9999,2 53164  53.2159  69.5211 0001147 109.8971 250.2144 15.08847695 35681,6917.857,95.437,540.515,538.928,0.0
53164.0,STARLINK-4116,PAYLOAD,2023-03-04 07:51:50,15.08860923,0.0001364,53.2161,68.3316,102.0896,258.0249,0.00061843,9.574e-05,0.0,0 STARLINK-4116,1 53164U 22083AJ  23063.32767088  .00009574  00000-0  61843-3 0  9999,2 53164  53.2161  68.3316 0001364 102.0896 258.0249 15.08860923 35725,6917.816,95.436,540.625,538.738,0.0
53164.0,STARLINK-4116,PAYLOAD,2023-03-04 17:24:09,15.08845689,0.0001502,53.2165,66.5491,81.0876,279.0286,0.00038701,5.878e-05,0.0,0 STARLINK-4116,1 53164U 22083AJ  23063.72511478  .00005878  00000-0  38701-3 0  9993,2 53164  53.2165  66.5491 0001502  81.0876 279.0286 15.08845689 35783,6917.863,95.437,540.767,538.689,0.0
53164.0,STARLINK-4116,PAYLOAD,2023-03-05 09:18:01,15.08850256,0.000128,53.2153,63.5714,92.0058,268.1081,0.00059485,9.194e-05,0.0,0 STARLINK-4116,1 53164U 22083AJ  23064.38751507  .00009194  00000-0  59485-3 0  9992,2 53164  53.2153  63.5714 0001280  92.0058 268.1081 15.08850256 35252,6917.849,95.437,540.6,538.829,0.0
53164.0,STARLINK-4116,PAYLOAD,2023-03-05 17:14:57,15.08837232,0.0001591,53.2163,62.083,101.6579,258.4591,0.00038798,5.892e-05,0.0,0 STARLINK-4116,1 53164U 22083AJ  23064.71871861  .00005892  00000-0  38798-3 0  9990,2 53164  53.2163  62.0830 0001591 101.6579 258.4591 15.08837232 35938,6917.889,95.438,540.854,538.653,0.0
53164.0,STARLINK-4116,PAYLOAD,2023-03-06 09:08:48,15.0885927,0.0001479,53.2162,59.1102,98.4784,261.6376,0.00079516,0.00012396,0.0,0 STARLINK-4116,1 53164U 22083AJ  23065.38111361  .00012396  00000-0  79516-3 0  9996,2 53164  53.2162  59.1102 0001479  98.4784 261.6376 15.08859270 36037,6917.821,95.436,540.71,538.663,0.0
53164.0,STARLINK-4116,PAYLOAD,2023-03-07 05:48:49,15.0885853,9.74e-05,53.2163,55.2449,97.4007,262.7095,0.001038,0.00016279,0.0,0 STARLINK-4116,1 53164U 22083AJ  23066.24223546  .00016279  00000-0  10380-2 0  9998,2 53164  53.2163  55.2449 0000974  97.4007 262.7095 15.08858530 36167,6917.824,95.436,540.363,539.015,0.0
53164.0,STARLINK-4116,PAYLOAD,2023-03-07 08:59:35,15.08859947,9.95e-05,53.2171,54.6506,90.8653,269.2453,0.0017802,0.00028173,0.0,0 STARLINK-4116,1 53164U 22083AJ  23066.37471575  .00028173  00000-0  17802-2 0  9991,2 53164  53.2171  54.6506 0000995  90.8653 269.2453 15.08859947 35555,6917.819,95.436,540.373,538.996,0.0
53164.0,STARLINK-4116,PAYLOAD,2023-03-08 02:28:50,15.08856297,0.0001249,53.2168,51.3784,75.5666,284.5465,0.0016634,0.00026296,0.0,0 STARLINK-4116,1 53164U 22083AJ  23067.10336076  .00026296  00000-0  16634-2 0  9995,2 53164  53.2168  51.3784 0001249  75.5666 284.5465 15.08856297 36290,6917.831,95.437,540.56,538.832,0.0
53164.0,STARLINK-4116,PAYLOAD,2023-03-08 08:50:22,15.0885461,0.0001038,53.2174,50.1909,65.2446,294.8654,0.001408,0.000222,0.0,0 STARLINK-4116,1 53164U 22083AJ  23067.36831965  .00022200  00000-0  14080-2 0  9994,2 53164  53.2174  50.1909 0001038  65.2446 294.8654 15.08854610 36337,6917.836,95.437,540.419,538.983,0.0
53164.0,STARLINK-4116,PAYLOAD,2023-03-08 15:11:55,15.0884672,0.0001008,53.2157,48.9995,61.2779,298.8314,0.0010111,0.00015843,0.0,0 STARLINK-4116,1 53164U 22083AJ  23067.63328063  .00015843  00000-0  10111-2 0  9990,2 53164  53.2157  48.9995 0001008  61.2779 298.8314 15.08846720 36374,6917.86,95.437,540.422,539.028,0.0
53164.0,STARLINK-4116,PAYLOAD,2023-03-08 21:33:28,15.08843611,0.0001116,53.2151,47.812,72.2636,287.8478,0.00063231,9.791e-05,0.0,0 STARLINK-4116,1 53164U 22083AJ  23067.89824218  .00009791  00000-0  63231-3 0  9998,2 53164  53.2151  47.8120 0001116  72.2636 287.8478 15.08843611 35789,6917.869,95.437,540.506,538.962,0.0
53164.0,STARLINK-4116,PAYLOAD,2023-03-09 02:19:37,15.08847456,8.94e-05,53.218,46.9208,88.1713,271.9381,0.00029214,4.366e-05,0.0,0 STARLINK-4116,1 53164U 22083AJ  23068.09696000  .00004366  00000-0  29214-3 0  9993,2 53164  53.2180  46.9208 0000894  88.1713 271.9381 15.08847456 36444,6917.858,95.437,540.341,539.104,0.0
53164.0,STARLINK-4116,PAYLOAD,2023-03-09 05:30:23,15.08855685,7.06e-05,53.2172,46.3232,73.2303,286.8767,0.00039908,6.072e-05,0.0,0 STARLINK-4116,1 53164U 22083AJ  23068.22943386  .00006072  00000-0  39908-3 0  9997,2 53164  53.2172  46.3232 0000706  73.2303 286.8767 15.08855685 36466,6917.832,95.437,540.186,539.209,0.0
53164.0,STARLINK-4116,PAYLOAD,2023-03-10 03:45:47,15.08851419,0.0001129,53.2176,42.1609,75.2508,284.8609,0.0002269,3.326e-05,0.0,0 STARLINK-4116,1 53164U 22083AJ  23069.15679476  .00003326  00000-0  22690-3 0  9995,2 53164  53.2176  42.1609 0001129  75.2508 284.8609 15.08851419 36601,6917.845,95.437,540.492,538.929,0.0
53164.0,STARLINK-4116,PAYLOAD,2023-03-10 08:31:56,15.08863837,0.0001083,53.2165,41.2694,80.787,279.3244,0.00051917,7.99e-05,0.0,0 STARLINK-4116,1 53164U 22083AJ  23069.35550959  .00007990  00000-0  51917-3 0  9996,2 53164  53.2165  41.2694 0001083  80.7870 279.3244 15.08863837 36639,6917.808,95.436,540.422,538.923,0.0
53164.0,STARLINK-4116,PAYLOAD,2023-03-10 14:53:29,15.08828117,0.0002057,53.2161,40.0787,88.3892,271.7336,-0.00038407,-6.394e-05,0.0,0 STARLINK-4116,1 53164U 22083AJ  23069.62048058 -.00006394  00000-0 -38407-3 0  9996,2 53164  53.2161  40.0787 0002057  88.3892 271.7336 15.08828117 36679,6917.917,95.438,541.205,538.359,0.0
53164.0,STARLINK-4116,PAYLOAD,2023-03-11 06:47:20,15.08842648,0.0001018,53.2171,37.1061,117.5597,242.5499,0.00046214,7.075e-05,0.0,0 STARLINK-4116,1 53164U 22083AJ  23070.28287919  .00007075  00000-0  46214-3 0  9991,2 53164  53.2171  37.1061 0001018 117.5597 242.5499 15.08842648 36777,6917.872,95.437,540.442,539.033,0.0
53164.0,STARLINK-4116,PAYLOAD,2023-03-11 22:41:13,15.08825678,0.0001357,53.2175,34.1334,96.1659,263.9488,-5.3399e-05,-1.137e-05,0.0,0 STARLINK-4116,1 53164U 22083AJ  23070.94529311 -.00001137  00000-0 -53399-4 0  9997,2 53164  53.2175  34.1334 0001357  96.1659 263.9488 15.08825678 36249,6917.924,95.438,540.728,538.85,0.0
53164.0,STARLINK-4116,PAYLOAD,2023-03-12 08:13:32,15.08829154,0.0001478,53.217,32.3487,92.9447,267.1714,0.00024792,3.659e-05,0.0,0 STARLINK-4116,1 53164U 22083AJ  23071.34273843  .00003659  00000-0  24792-3 0  9991,2 53164  53.2170  32.3487 0001478  92.9447 267.1714 15.08829154 36304,6917.914,95.438,540.801,538.756,0.0
53164.0,STARLINK-4116,PAYLOAD,2023-03-12 22:32:00,15.08858488,0.00012,53.2171,29.6732,91.336,268.777,0.00089096,0.00013927,0.0,0 STARLINK-4116,1 53164U 22083AJ  23071.93889155  .00013927  00000-0  89096-3 0  9992,2 53164  53.2171  29.6732 0001200  91.3360 268.7770 15.08858488 37028,6917.824,95.436,540.519,538.859,0.0
53164.0,STARLINK-4116,PAYLOAD,2023-03-13 06:28:54,15.08881889,0.000104,53.2176,28.1858,106.9426,253.168,0.0013573,0.00021404,0.0,0 STARLINK-4116,1 53164U 22083AJ  23072.27008006  .00021404  00000-0  13573-2 0  9993,2 53164  53.2176  28.1858 0001040 106.9426 253.1680 15.08881889 37078,6917.752,95.435,540.337,538.898,0.0
53164.0,STARLINK-4116,PAYLOAD,2023-03-13 20:47:23,15.08849306,0.0001635,53.2176,25.5107,89.7655,270.3524,-4.1153e-05,-9.43e-06,0.0,0 STARLINK-4116,1 53164U 22083AJ  23072.86624410 -.00000943  00000-0 -41153-4 0  9995,2 53164  53.2176  25.5107 0001635  89.7655 270.3524 15.08849306 37164,6917.852,95.437,540.848,538.586,0.0
53164.0,STARLINK-4116,PAYLOAD,2023-03-14 14:16:37,15.08847765,5.67e-05,53.2188,22.2386,96.5328,263.5729,0.00019464,2.812e-05,0.0,0 STARLINK-4116,1 53164U 22083AJ  23073.59488042  .00002812  00000-0  19464-3 0  9999,2 53164  53.2188  22.2386 0000567  96.5328 263.5729 15.08847765 36646,6917.857,95.437,540.114,539.329,0.0
53164.0,STARLINK-4116,PAYLOAD,2023-03-15 02:59:43,15.08846312,0.0001394,53.2168,19.8616,70.8418,289.2725,0.00090692,0.00014178,0.0,0 STARLINK-4116,1 53164U 22083AJ  23074.12480488  .00014178  00000-0  90692-3 0  9995,2 53164  53.2168  19.8616 0001394  70.8418 289.2725 15.08846312 37353,6917.861,95.437,540.69,538.762,0.0
53164.0,STARLINK-4116,PAYLOAD,2023-03-15 06:10:29,15.08851139,0.0001371,53.217,19.2662,75.2614,284.853,0.00075476,0.00011748,0.0,0 STARLINK-4116,1 53164U 22083AJ  23074.25728229  .00011748  00000-0  75476-3 0  9990,2 53164  53.2170  19.2662 0001371  75.2614 284.8530 15.08851139 36743,6917.846,95.437,540.66,538.763,0.0
53164.0,STARLINK-4116,PAYLOAD,2023-03-15 20:28:58,15.08832225,0.0001429,53.2186,16.5901,78.1333,281.9819,-3.7353e-05,-8.82e-06,0.0,0 STARLINK-4116,1 53164U 22083AJ  23074.85345048 -.00000882  00000-0 -37353-4 0  9992,2 53164  53.2186  16.5901 0001429  78.1333 281.9819 15.08832225 37463,6917.904,95.438,540.758,538.781,0.0
53164.0,STARLINK-4116,PAYLOAD,2023-03-16 04:25:53,15.0885397,0.0001376,53.2183,15.1038,92.0453,268.0697,0.0010453,0.00016393,0.0,0 STARLINK-4116,1 53164U 22083AJ  23075.18464778  .00016393  00000-0  10453-2 0  9993,2 53164  53.2183  15.1038 0001376  92.0453 268.0697 15.08853970 37511,6917.838,95.437,540.655,538.751,0.0
